NAVSTAR 77 (USA 289)    
1 43873U 18109A   24248.10797341  .00000017  00000+0  00000+0 0  9992
2 43873  55.3254 117.9084 0030247 192.3521 340.3002  2.00559523 42010
